[{"OBJECT_NAME":"STARLINK-31010","OBJECT_ID":"2023-191M","EPOCH":"2026-03-08T08:00:03.000384","MEAN_MOTION":15.27575293,"ECCENTRICITY":0.00010706,"INCLINATION":42.9996,"RA_OF_ASC_NODE":111.1992,"ARG_OF_PERICENTER":282.2634,"MEAN_ANOMALY":18.6268,"EPHEMERIS_TYPE":0,"CLASSIFICATION_TYPE":"U","NORAD_CAT_ID":58519,"ELEMENT_SET_NO":999,"REV_AT_EPOCH":579,"BSTAR":-0.00019262494,"MEAN_MOTION_DOT":-5.558e-5,"MEAN_MOTION_DDOT":0},{"OBJECT_NAME":"NUSAT-44 (MARIA MITCHELL)","OBJECT_ID":"2024-043AA","EPOCH":"2026-03-09T22:12:18.524160","MEAN_MOTION":15.29764305,"ECCENTRICITY":0.0007331,"INCLINATION":97.5299,"RA_OF_ASC_NODE":207.7691,"ARG_OF_PERICENTER":214.9017,"MEAN_ANOMALY":145.1743,"EPHEMERIS_TYPE":0,"CLASSIFICATION_TYPE":"U","NORAD_CAT_ID":59122,"ELEMENT_SET_NO":999,"REV_AT_EPOCH":11209,"BSTAR":0.00061063193,"MEAN_MOTION_DOT":0.00017562,"MEAN_MOTION_DDOT":0}]
